ONEWEB-0228             
1 48780U 21045P   24187.87093189  .00000100  00000+0  23304-3 0  9991
2 48780  87.9018  40.7303 0001909  81.0590 279.0756 13.15069863150803
